CAS-2T & KS-1Q          
1 41847U 16066G   21148.78588501  .00000089  00000-0  24713-4 0  9999
2 41847  98.6024 207.8311 0364070 279.1431  76.8745 14.38189642239056
NAYIF-1 (EO-88)         
1 42017U 17008BX  21149.44056319  .00002424  00000-0  91118-4 0  9995
2 42017  97.3162 217.3807 0006537 160.6717 199.4772 15.28101122238354
ZHUHAI-1 02 (CAS-4B)    
1 42759U 17034B   21149.44828731  .00000417  00000-0  38388-4 0  9992
2 42759  43.0181 285.5669 0008340  36.7298  69.1064 15.10210584218270
ZHUHAI-1 01 (CAS-4A)    
1 42761U 17034D   21149.44005674  .00000580  00000-0  48129-4 0  9993
2 42761  43.0183 284.6788 0008844  37.8505  66.3451 15.10296296218272
MAX VALIER SAT          
1 42778U 17036P   21148.73220609  .00001412  00000-0  61853-4 0  9995
2 42778  97.2563 197.9886 0010253 241.3642 118.6565 15.23560743218282
RADFXSAT (FOX-1B)       
1 43017U 17073E   21148.72119933  .00001197  00000-0  97155-4 0  9993
2 43017  97.7085  53.4877 0255304   5.1335 355.2403 14.79530358190202
FOX-1D (AO-92)          
1 43137U 18004AC  21149.43835904  .00001462  00000-0  61086-4 0  9992
2 43137  97.4072 223.6637 0007104 279.9649  80.0787 15.25206552187757
DIWATA-2B               
1 43678U 18084H   21149.40382171  .00000140  00000-0  19668-4 0  9991
2 43678  97.9194 274.5843 0011384 110.0171 250.2259 14.91750120140594
ES'HAIL 2               
1 43700U 18090A   21148.68206167  .00000138  00000-0  00000-0 0  9996
2 43700   0.0138  10.7489 0001479  73.1632  73.8519  1.00272392  9176
FOX-1CLIFF (AO-95)      
1 43770U 18099N   21149.44557040  .00000050  00000-0  96771-5 0  9994
2 43770  97.6654 220.0519 0015861 118.8863 241.3952 14.95310242135618
ITASAT 1                
1 43786U 18099AE  21149.43543287  .00000003  00000-0  53789-5 0  9998
2 43786  97.6677 220.7067 0016611 112.4395 247.8588 14.95608344135641
JY1SAT (JO-97)          
1 43803U 18099AX  21149.46931845  .00000789  00000-0  75573-4 0  9997
2 43803  97.6635 220.4939 0016658 112.8114 247.4869 14.95849122135654
UWE-4                   
1 43880U 18111E   21148.73029921  .00000137  00000-0  16961-4 0  9992
2 43880  97.6880  56.7988 0012363 164.1127 196.0485 14.96852030132134
PSAT2 (NO-104)          
1 44354U 19036R   21149.44444611  .00010978  00000-0  14322-3 0  9994
2 44354  28.5264 253.7314 0327635  70.0502 293.5072 15.13068893106081
BRICSAT2 (NO-103)       
1 44355U 19036S   21148.49864965  .00031977  00000-0  35421-3 0  9992
2 44355  28.5216 218.1598 0268090 127.9589 234.5547 15.28468409106371
JAISAT-1                
1 44419U 19038F   21149.46838299  .00001306  00000-0  75893-4 0  9995
2 44419  97.5873 114.2418 0021770  22.3017 337.9156 15.13721859104928
DUCHIFAT-3              
1 44854U 19089C   21149.48241049  .00000457  00000-0  42926-4 0  9994
2 44854  36.9647 212.8245 0009263 340.7698  19.2728 14.99484889 80251
RS-44 & BREEZE-KM R/B   
1 44909U 19096E   21148.69101321  .00000005  00000-0 -29304-4 0  9998
2 44909  82.5186 125.9434 0218082 139.0713 222.6992 12.79709987 66295
ORBITAL FACTORY 2 (OF-2)
1 45113U 19071C   21148.68801263  .00003504  00000-0  11032-3 0  9994
2 45113  51.6412 133.3372 0011349 220.9252 139.0880 15.35651754 74133
HUSKYSAT-1 (HO-107)     
1 45119U 19071J   21148.50458212  .00003228  00000-0  10242-3 0  9998
2 45119  51.6406 133.6082 0010788 216.3862 143.6389 15.35684318 74109
BY70-2                  
1 45857U 20042B   21149.54085005  .00001392  00000-0  20487-3 0  9990
2 45857  97.9832 225.4847 0009061 274.5035  85.5146 14.76982283 48756
SALSAT                  
1 46495U 20068K   21148.89386592  .00000718  00000-0  57125-4 0  9990
2 46495  97.6936  86.5052 0018157 135.0999 225.1699 15.03455017 36390
BY70-3                  
1 46839U 20079N   21149.45649516  .00003070  00000-0  96956-4 0  9994
2 46839  97.2405 223.6901 0005084 276.1791 151.1563 15.33571253 31294
RADFXSAT-2 (AO-109)     
1 47311U 21002C   21148.77647312  .00000919  00000-0  51978-4 0  9997
2 47311  60.6870   4.8563 0033950  37.8004 322.5457 15.21607045 19877
UVSQ-SAT                
1 47438U 21006AB  21148.74085913  .00001023  00000-0  61382-4 0  9998
2 47438  97.4885 210.3166 0013374 159.6046 200.5722 15.13100137 19074
DIY-1 (ARDUIQUBE)       
1 47963U 21022AH  21148.71040587  .00002177  00000-0  14826-3 0  9995
2 47963  97.5602  51.3936 0020554  17.7922 342.4021 15.07165022  8925
